OBJECT_NAME,OBJECT_ID,EPOCH,MEAN_MOTION,ECCENTRICITY,INCLINATION,RA_OF_ASC_NODE,ARG_OF_PERICENTER,MEAN_ANOMALY,EPHEMERIS_TYPE,CLASSIFICATION_TYPE,NORAD_CAT_ID,ELEMENT_SET_NO,REV_AT_EPOCH,BSTAR,MEAN_MOTION_DOT,MEAN_MOTION_DDOT
OSCAR 7 (AO-7),1974-089B,2026-07-12T23:45:28.597248,12.53698525,.00126585,101.9904,207.5054,82.4551,304.9872,0,U,7530,999,36375,.12780784E-3,-.26E-6,0
PHASE 3B (AO-10),1983-058B,2026-07-09T16:55:32.549376,2.05870648,.60033527,25.9319,215.8523,121.8543,310.3469,0,U,14129,999,29595,0,.106E-5,0
UOSAT 2 (UO-11),1984-021B,2026-07-13T06:19:23.374272,14.90846236,.00091954,97.8075,159.5502,96.7978,263.4286,0,U,14781,999,26101,.81145154E-4,.744E-5,0
LUSAT (LO-19),1990-005G,2026-07-12T07:10:02.661888,14.34130209,.00124401,98.8847,215.7954,129.3206,230.9083,0,U,20442,999,90599,.33720143E-4,.48E-6,0
EYESAT A (AO-27),1993-061C,2026-07-13T03:37:54.441984,14.30948752,.00088758,98.6869,261.5539,31.5428,328.6285,0,U,22825,999,71071,.32597986E-4,.41E-6,0
ITAMSAT (IO-26),1993-061D,2026-07-13T02:57:06.045696,14.31376322,.00090858,98.6817,261.4457,15.3060,344.8396,0,U,22826,999,71102,.29298912E-4,.33E-6,0
RADIO ROSTO (RS15),1994-085A,2026-07-13T04:34:25.521888,11.27583551,.01568332,64.8159,261.1629,359.0766,0.9847,0,U,23439,999,29883,.68239154E-3,-.18E-6,0
JAS-2 (FO-29),1996-046B,2026-07-12T12:32:04.080480,13.53275422,.0350477,98.5221,38.9215,30.8650,331.2590,0,U,24278,999,47659,.54922856E-4,.2E-6,0
TECHSAT 1B (GO-32),1998-043D,2026-07-12T21:55:49.712448,14.24433105,.00021307,99.0083,187.3229,118.0072,242.1321,0,U,25397,999,45499,.29957615E-4,.23E-6,0
ISS (ZARYA),1998-067A,2026-07-13T02:54:40.039200,15.48996109,.00066854,51.6304,171.7447,289.3803,70.6462,0,U,25544,999,57577,.86456021E-4,.4316E-4,0
PCSAT (NO-44),2001-043C,2026-07-12T22:22:20.806464,14.31964496,.0005947,67.0492,177.6826,266.4002,93.6419,0,U,26931,999,29413,.42247323E-4,.3E-6,0
SAUDISAT 1C (SO-50),2002-058C,2026-07-12T21:56:09.315744,14.83095930,.00745949,64.5517,49.3840,257.6999,101.5749,0,U,27607,999,26827,.64575255E-4,.395E-5,0
CUTE-1 (CO-55),2003-031E,2026-07-13T05:44:56.494464,14.24350794,.00107993,98.6742,202.4711,107.7060,252.5299,0,U,27844,999,19538,.87036192E-4,.158E-5,0
CUBESAT XI-IV (CO-57),2003-031J,2026-07-12T12:55:06.299904,14.23633637,.00104483,98.6772,201.4707,126.3839,233.8305,0,U,27848,999,19498,.7534821E-4,.128E-5,0
MOZHAETS 4 (RS22),2003-042A,2026-07-13T07:12:42.076800,14.73511591,.00110627,98.3474,19.3986,179.2309,306.6469,0,U,27939,999,21939,.72512494E-4,.418E-5,0
CUBESAT XI-V,2005-043F,2026-07-12T21:09:56.819232,14.72699028,.00151848,98.3010,350.0479,122.0632,238.2052,0,U,28895,999,10553,.12439542E-3,.741E-5,0
SWISSCUBE,2009-051B,2026-07-13T07:17:18.426336,14.62528711,.0007766,98.4011,102.6448,124.1169,236.0769,0,U,35932,999,89297,.1073E-3,.495E-5,0
BEESAT-1,2009-051C,2026-07-12T17:03:25.723296,14.61759519,.00059845,98.3939,101.6234,136.3628,223.8047,0,U,35933,999,89291,.88659106E-4,.393E-5,0
ITUPSAT1,2009-051E,2026-07-11T23:17:18.975264,14.60475983,.0007861,98.4023,100.0372,152.4089,207.7529,0,U,35935,999,89235,.90105677E-4,.388E-5,0
O/OREOS (USA 219),2010-062C,2026-07-12T23:29:05.665920,14.93846697,.00138578,71.9695,21.9108,9.4460,350.6968,0,U,37224,999,12049,.11532673E-3,.1163E-4,0
JUGNU,2011-058B,2026-07-13T01:27:49.154112,14.13783158,.0018498,19.9592,151.2304,2.9049,74.5783,0,U,37839,999,76269,.42398519E-4,.348E-5,0
SRMSAT,2011-058D,2026-07-13T05:29:33.764928,14.11580868,.00118326,19.9713,261.8486,129.6886,263.2365,0,U,37841,999,76150,.45215897E-4,.348E-5,0
STRAND-1,2013-009E,2026-07-12T11:13:41.134080,14.37177891,.00092621,98.3932,13.0813,148.5894,211.5848,0,U,39090,999,70069,.64298601E-4,.149E-5,0
ZACUBE-1 (TSHEPISOSAT),2013-066B,2026-07-12T22:26:41.745696,15.01323430,.00439013,97.8010,156.3996,162.4582,197.8170,0,U,39417,999,68459,.11529818E-3,.145E-4,0
GOMX-1,2013-066Q,2026-07-13T06:21:13.320864,14.69539924,.01284572,97.6476,33.0821,354.4286,5.5484,0,U,39430,999,67374,.12783247E-3,.808E-5,0
